start=new Date('2022-02-21T00:00:00.000Z').valueOf();
sats=[{"FILE":"3310556","MEAN_ANOMALY":"293.9147","INCLINATION":"53.0540","MEAN_MOTION":"15.06398636","TLE_LINE1":"1 46382U 20062BK  22051.55067937  .00001857  00000-0  14356-3 0  9998","TLE_LINE2":"2 46382  53.0540 127.2558 0001672  66.2017 293.9147 15.06398636 82158","REF_FRAME":"TEME","REV_AT_EPOCH":"8215","OBJECT_ID":"2020-062BK","ELEMENT_SET_NO":"999","BSTAR":"0.00014356000000","LAUNCH_DATE":"2020-09-03","OBJECT_TYPE":"PAYLOAD","NORAD_CAT_ID":"46382","GP_ID":"196512256","PERIOD":"95.592","ARG_OF_PERICENTER":"66.2017","RA_OF_ASC_NODE":"127.2558","RCS_SIZE":"LARGE","SEMIMAJOR_AXIS":"6925.353","DECAY_DATE":null,"SITE":"AFETR","MEAN_MOTION_DDOT":"0.0000000000000","MEAN_MOTION_DOT":"0.00001857","CENTER_NAME":"EARTH","ECCENTRICITY":"0.00016720","MEAN_ELEMENT_THEORY":"SGP4","EPHEMERIS_TYPE":"0","EPOCH":"2022-02-20T13:12:58.697568","OBJECT_NAME":"STARLINK-1769","TIME_SYSTEM":"UTC","CLASSIFICATION_TYPE":"U","COUNTRY_CODE":"US","PERIAPSIS":"546.060","APOAPSIS":"548.376"},{"EPOCH":"2022-02-20T17:40:19.966944","ECCENTRICITY":"0.00013130","MEAN_ELEMENT_THEORY":"SGP4","EPHEMERIS_TYPE":"0","APOAPSIS":"548.105","PERIAPSIS":"546.286","OBJECT_NAME":"STARLINK-1770","TIME_SYSTEM":"UTC","COUNTRY_CODE":"US","CLASSIFICATION_TYPE":"U","DECAY_DATE":null,"SEMIMAJOR_AXIS":"6925.330","ARG_OF_PERICENTER":"73.9864","RCS_SIZE":"LARGE","RA_OF_ASC_NODE":"171.4130","MEAN_MOTION_DOT":"0.00001869","CENTER_NAME":"EARTH","MEAN_MOTION_DDOT":"0.0000000000000","SITE":"AFETR","OBJECT_TYPE":"PAYLOAD","NORAD_CAT_ID":"46383","LAUNCH_DATE":"2020-09-03","PERIOD":"95.592","GP_ID":"196512284","TLE_LINE1":"1 46383U 20062BL  22051.73634221  .00001869  00000-0  14430-3 0  9991","MEAN_MOTION":"15.06405973","FILE":"3310556","MEAN_ANOMALY":"286.1269","INCLINATION":"53.0546","OBJECT_ID":"2020-062BL","REV_AT_EPOCH":"8154","BSTAR":"0.00014430000000","ELEMENT_SET_NO":"999","TLE_LINE2":"2 46383  53.0546 171.4130 0001313  73.9864 286.1269 15.06405973 81543","REF_FRAME":"TEME"},{"OBJECT_TYPE":"PAYLOAD","NORAD_CAT_ID":"46384","LAUNCH_DATE":"2020-09-03","PERIOD":"95.591","GP_ID":"196512535","TLE_LINE1":"1 46384U 20062BM  22051.74003560  .00005782  00000-0  40664-3 0  9995","MEAN_MOTION":"15.06410676","FILE":"3310556","MEAN_ANOMALY":"285.1569","INCLINATION":"53.0548","OBJECT_ID":"2020-062BM","REV_AT_EPOCH":"8154","ELEMENT_SET_NO":"999","BSTAR":"0.00040664000000","TLE_LINE2":"2 46384  53.0548 171.3890 0001309  74.9565 285.1569 15.06410676 81540","REF_FRAME":"TEME","EPOCH":"2022-02-20T17:45:39.075840","MEAN_ELEMENT_THEORY":"SGP4","ECCENTRICITY":"0.00013090","EPHEMERIS_TYPE":"0","APOAPSIS":"548.087","PERIAPSIS":"546.274","OBJECT_NAME":"STARLINK-1771","TIME_SYSTEM":"UTC","CLASSIFICATION_TYPE":"U","COUNTRY_CODE":"US","DECAY_DATE":null,"SEMIMAJOR_AXIS":"6925.316","ARG_OF_PERICENTER":"74.9565","RCS_SIZE":"LARGE","RA_OF_ASC_NODE":"171.3890","MEAN_MOTION_DOT":"0.00005782","CENTER_NAME":"EARTH","MEAN_MOTION_DDOT":"0.0000000000000","SITE":"AFETR"},{"INCLINATION":"53.0546","MEAN_ANOMALY":"282.2404","FILE":"3310073","MEAN_MOTION":"15.06413854","TLE_LINE1":"1 46532U 20070A   22051.47464345  .00006108  00000-0  42846-3 0  9998","REF_FRAME":"TEME","TLE_LINE2":"2 46532  53.0546 332.5823 0001706  77.8776 282.2404 15.06413854 76706","ELEMENT_SET_NO":"999","BSTAR":"0.00042846000000","REV_AT_EPOCH":"7670","OBJECT_ID":"2020-070A","LAUNCH_DATE":"2020-10-06","NORAD_CAT_ID":"46532","OBJECT_TYPE":"PAYLOAD","GP_ID":"196477233","PERIOD":"95.591","RA_OF_ASC_NODE":"332.5823","RCS_SIZE":"LARGE","ARG_OF_PERICENTER":"77.8776","DECAY_DATE":null,"SEMIMAJOR_AXIS":"6925.306","SITE":"AFETR","MEAN_MOTION_DDOT":"0.0000000000000","CENTER_NAME":"EARTH","MEAN_MOTION_DOT":"0.00006108","EPHEMERIS_TYPE":"0","MEAN_ELEMENT_THEORY":"SGP4","ECCENTRICITY":"0.00017060","EPOCH":"2022-02-20T11:23:29.194080","CLASSIFICATION_TYPE":"U","COUNTRY_CODE":"US","TIME_SYSTEM":"UTC","OBJECT_NAME":"STARLINK-1644","PERIAPSIS":"545.990","APOAPSIS":"548.353"},{"PERIOD":"95.591","GP_ID":"196512298","NORAD_CAT_ID":"46533","OBJECT_TYPE":"PAYLOAD","LAUNCH_DATE":"2020-10-06","BSTAR":"0.00047323000000","ELEMENT_SET_NO":"999","REV_AT_EPOCH":"7675","OBJECT_ID":"2020-070B","REF_FRAME":"TEME","TLE_LINE2":"2 46533  53.0521 331.0384 0001631  70.2784 289.8381 15.06410837 76759","MEAN_MOTION":"15.06410837","TLE_LINE1":"1 46533U 20070B   22051.81743706  .00006776  00000-0  47323-3 0  9994","MEAN_ANOMALY":"289.8381","INCLINATION":"53.0521","FILE":"3310556","PERIAPSIS":"546.051","APOAPSIS":"548.310","CLASSIFICATION_TYPE":"U","COUNTRY_CODE":"US","TIME_SYSTEM":"UTC","OBJECT_NAME":"STARLINK-1648","EPOCH":"2022-02-20T19:37:06.561984","EPHEMERIS_TYPE":"0","MEAN_ELEMENT_THEORY":"SGP4","ECCENTRICITY":"0.00016310","CENTER_NAME":"EARTH","MEAN_MOTION_DOT":"0.00006776","SITE":"AFETR","MEAN_MOTION_DDOT":"0.0000000000000","SEMIMAJOR_AXIS":"6925.315","DECAY_DATE":null,"RA_OF_ASC_NODE":"331.0384","RCS_SIZE":"LARGE","ARG_OF_PERICENTER":"70.2784"},{"BSTAR":"0.00019470000000","ELEMENT_SET_NO":"999","OBJECT_ID":"2020-070C","REV_AT_EPOCH":"7676","REF_FRAME":"TEME","TLE_LINE2":"2 46534  53.0564 330.8307 0001403  12.9605 347.1420 15.06403356 76762","TLE_LINE1":"1 46534U 20070C   22051.86535746  .00002620  00000-0  19470-3 0  9999","MEAN_MOTION":"15.06403356","INCLINATION":"53.0564","MEAN_ANOMALY":"347.1420","FILE":"3310556","PERIOD":"95.592","GP_ID":"196512549","NORAD_CAT_ID":"46534","OBJECT_TYPE":"PAYLOAD","LAUNCH_DATE":"2020-10-06","CENTER_NAME":"EARTH","MEAN_MOTION_DOT":"0.00002620","MEAN_MOTION_DDOT":"0.0000000000000","SITE":"AFETR","SEMIMAJOR_AXIS":"6925.338","DECAY_DATE":null,"RCS_SIZE":"LARGE","RA_OF_ASC_NODE":"330.8307","ARG_OF_PERICENTER":"12.9605","APOAPSIS":"548.175","PERIAPSIS":"546.232","COUNTRY_CODE":"US","CLASSIFICATION_TYPE":"U","OBJECT_NAME":"STARLINK-1659","TIME_SYSTEM":"UTC","EPOCH":"2022-02-20T20:46:06.884544","EPHEMERIS_TYPE":"0","ECCENTRICITY":"0.00014030","MEAN_ELEMENT_THEORY":"SGP4"},{"LAUNCH_DATE":"2020-10-06","NORAD_CAT_ID":"46535","OBJECT_TYPE":"PAYLOAD","GP_ID":"196512801","PERIOD":"95.592","MEAN_ANOMALY":"289.8092","INCLINATION":"53.0552","FILE":"3310556","MEAN_MOTION":"15.06405815","TLE_LINE1":"1 46535U 20070D   22051.85429589  .00000265  00000-0  36668-4 0  9998","REF_FRAME":"TEME","TLE_LINE2":"2 46535  53.0552 330.8846 0001656  70.3076 289.8092 15.06405815 76756","ELEMENT_SET_NO":"999","BSTAR":"0.00003666800000","REV_AT_EPOCH":"7675","OBJECT_ID":"2020-070D","EPHEMERIS_TYPE":"0","MEAN_ELEMENT_THEORY":"SGP4","ECCENTRICITY":"0.00016560","EPOCH":"2022-02-20T20:30:11.164896","CLASSIFICATION_TYPE":"U","COUNTRY_CODE":"US","OBJECT_NAME":"STARLINK-1663","TIME_SYSTEM":"UTC","PERIAPSIS":"546.049","APOAPSIS":"548.343","RA_OF_ASC_NODE":"330.8846","RCS_SIZE":"LARGE","ARG_OF_PERICENTER":"70.3076","SEMIMAJOR_AXIS":"6925.331","DECAY_DATE":null,"SITE":"AFETR","MEAN_MOTION_DDOT":"0.0000000000000","CENTER_NAME":"EARTH","MEAN_MOTION_DOT":"0.00000265"},{"PERIOD":"95.591","GP_ID":"196477733","NORAD_CAT_ID":"46537","OBJECT_TYPE":"PAYLOAD","LAUNCH_DATE":"2020-10-06","ELEMENT_SET_NO":"999","BSTAR":"0.00010415000000","REV_AT_EPOCH":"7670","OBJECT_ID":"2020-070F","REF_FRAME":"TEME","TLE_LINE2":"2 46537  53.0546 332.5481 0001645  76.2559 283.8613 15.06411087 76700","MEAN_MOTION":"15.06411087","TLE_LINE1":"1 46537U 20070F   22051.48201522  .00001271  00000-0  10415-3 0  9993","MEAN_ANOMALY":"283.8613","INCLINATION":"53.0546","FILE":"3310073","PERIAPSIS":"546.040","APOAPSIS":"548.319","COUNTRY_CODE":"US","CLASSIFICATION_TYPE":"U","OBJECT_NAME":"STARLINK-1672","TIME_SYSTEM":"UTC","EPOCH":"2022-02-20T11:34:06.115008","EPHEMERIS_TYPE":"0","ECCENTRICITY":"0.00016450","MEAN_ELEMENT_THEORY":"SGP4","CENTER_NAME":"EARTH","MEAN_MOTION_DOT":"0.00001271","SITE":"AFETR","MEAN_MOTION_DDOT":"0.0000000000000","SEMIMAJOR_AXIS":"6925.315","DECAY_DATE":null,"RA_OF_ASC_NODE":"332.5481","RCS_SIZE":"LARGE","ARG_OF_PERICENTER":"76.2559"},{"BSTAR":"0.00014696000000","ELEMENT_SET_NO":"999","REV_AT_EPOCH":"7674","OBJECT_ID":"2020-070G","REF_FRAME":"TEME","TLE_LINE2":"2 46538  53.0553 331.1599 0001748  68.3383 291.7792 15.06407039 76747","MEAN_MOTION":"15.06407039","TLE_LINE1":"1 46538U 20070G   22051.79162954  .00001908  00000-0  14696-3 0  9995","MEAN_ANOMALY":"291.7792","INCLINATION":"53.0553","FILE":"3310556","PERIOD":"95.592","GP_ID":"196511798","NORAD_CAT_ID":"46538","OBJECT_TYPE":"PAYLOAD","LAUNCH_DATE":"2020-10-06","CENTER_NAME":"EARTH","MEAN_MOTION_DOT":"0.00001908","SITE":"AFETR","MEAN_MOTION_DDOT":"0.0000000000000","DECAY_DATE":null,"SEMIMAJOR_AXIS":"6925.327","RA_OF_ASC_NODE":"331.1599","RCS_SIZE":"LARGE","ARG_OF_PERICENTER":"68.3383","PERIAPSIS":"545.981","APOAPSIS":"548.403","COUNTRY_CODE":"US","CLASSIFICATION_TYPE":"U","OBJECT_NAME":"STARLINK-1678","TIME_SYSTEM":"UTC","EPOCH":"2022-02-20T18:59:56.792256","EPHEMERIS_TYPE":"0","MEAN_ELEMENT_THEORY":"SGP4","ECCENTRICITY":"0.00017480"},{"OBJECT_TYPE":"PAYLOAD","NORAD_CAT_ID":"46539","LAUNCH_DATE":"2020-10-06","PERIOD":"91.546","GP_ID":"196512049","TLE_LINE1":"1 46539U 20070H   22051.72999504  .00166413  00000-0  11778-2 0  9998","MEAN_MOTION":"15.72975417","FILE":"3310556","INCLINATION":"53.0479","MEAN_ANOMALY":"253.6473","OBJECT_ID":"2020-070H","REV_AT_EPOCH":"7706","ELEMENT_SET_NO":"999","BSTAR":"0.00117780000000","TLE_LINE2":"2 46539  53.0479 308.8723 0001442 106.4703 253.6473 15.72975417 77068","REF_FRAME":"TEME","EPOCH":"2022-02-20T17:31:11.571456","MEAN_ELEMENT_THEORY":"SGP4","ECCENTRICITY":"0.00014420","EPHEMERIS_TYPE":"0","APOAPSIS":"351.371","PERIAPSIS":"349.430","OBJECT_NAME":"STARLINK-1684","TIME_SYSTEM":"UTC","COUNTRY_CODE":"US","CLASSIFICATION_TYPE":"U","SEMIMAJOR_AXIS":"6728.536","DECAY_DATE":null,"ARG_OF_PERICENTER":"106.4703","RCS_SIZE":"LARGE","RA_OF_ASC_NODE":"308.8723","MEAN_MOTION_DOT":"0.00166413","CENTER_NAME":"EARTH","MEAN_MOTION_DDOT":"0.0000000000000","SITE":"AFETR"}];
